STARLINK-31012          
1 58531U 23192A   26068.21080447  .00000482  00000+0  28406-4 0  9994
2 58531  53.1617  64.8527 0001324  92.8597 267.2556 15.30194258125918
KUIPER-00266            
1 67789U 26030AB  26067.91293632  .00029701  00000+0  98220-3 0  9996
2 67789  51.8807 223.5904 0022313  72.5291 287.8129 15.30874235  4964
